start=new Date('2022-09-10T00:00:00.000Z').valueOf();
sats=[{"CLASSIFICATION_TYPE":"U","PERIAPSIS":"546.271","EPOCH":"2022-09-09T05:21:36.862848","OBJECT_ID":"2021-018BE","REF_FRAME":"TEME","SITE":"AFETR","EPHEMERIS_TYPE":"0","LAUNCH_DATE":"2021-03-11","INCLINATION":"53.0530","FILE":"3564914","CENTER_NAME":"EARTH","MEAN_ANOMALY":"306.9202","GP_ID":"212127508","COUNTRY_CODE":"US","ECCENTRICITY":"0.00013590","MEAN_MOTION_DDOT":"0.0000000000000","OBJECT_NAME":"STARLINK-2431","OBJECT_TYPE":"PAYLOAD","BSTAR":"0.00012681000000","ELEMENT_SET_NO":"999","APOAPSIS":"548.154","NORAD_CAT_ID":"47839","MEAN_MOTION_DOT":"0.00001608","SEMIMAJOR_AXIS":"6925.348","REV_AT_EPOCH":"8448","PERIOD":"95.592","TLE_LINE2":"2 47839  53.0530 196.3763 0001359  53.1911 306.9202 15.06400298 84483","TLE_LINE1":"1 47839U 21018BE  22252.22334332  .00001608  00000-0  12681-3 0  9994","TIME_SYSTEM":"UTC","RA_OF_ASC_NODE":"196.3763","RCS_SIZE":"LARGE","ARG_OF_PERICENTER":"53.1911","DECAY_DATE":null,"MEAN_ELEMENT_THEORY":"SGP4","MEAN_MOTION":"15.06400298"},{"PERIOD":"95.592","TLE_LINE2":"2 47840  53.0529 206.9485 0001448  67.3738 292.7404 15.06398582 84315","TLE_LINE1":"1 47840U 21018BF  22252.10079472  .00003300  00000-0  24034-3 0  9990","REV_AT_EPOCH":"8431","SEMIMAJOR_AXIS":"6925.353","NORAD_CAT_ID":"47840","MEAN_MOTION_DOT":"0.00003300","MEAN_MOTION":"15.06398582","MEAN_ELEMENT_THEORY":"SGP4","DECAY_DATE":null,"RCS_SIZE":"LARGE","RA_OF_ASC_NODE":"206.9485","ARG_OF_PERICENTER":"67.3738","TIME_SYSTEM":"UTC","BSTAR":"0.00024034000000","ELEMENT_SET_NO":"999","OBJECT_TYPE":"PAYLOAD","OBJECT_NAME":"STARLINK-2432","APOAPSIS":"548.221","MEAN_ANOMALY":"292.7404","FILE":"3564914","CENTER_NAME":"EARTH","MEAN_MOTION_DDOT":"0.0000000000000","COUNTRY_CODE":"US","ECCENTRICITY":"0.00014480","GP_ID":"212128260","EPOCH":"2022-09-09T02:25:08.663808","PERIAPSIS":"546.215","CLASSIFICATION_TYPE":"U","LAUNCH_DATE":"2021-03-11","EPHEMERIS_TYPE":"0","INCLINATION":"53.0529","REF_FRAME":"TEME","SITE":"AFETR","OBJECT_ID":"2021-018BF"},{"BSTAR":"0.00014898000000","ELEMENT_SET_NO":"999","OBJECT_NAME":"STARLINK-2433","OBJECT_TYPE":"PAYLOAD","APOAPSIS":"548.210","TLE_LINE1":"1 47841U 21018BG  22252.82693336  .00001938  00000-0  14898-3 0  9993","TLE_LINE2":"2 47841  53.0547 203.6894 0001411  77.0262 283.0884 15.06393817 84427","PERIOD":"95.593","MEAN_MOTION_DOT":"0.00001938","NORAD_CAT_ID":"47841","REV_AT_EPOCH":"8442","SEMIMAJOR_AXIS":"6925.368","MEAN_ELEMENT_THEORY":"SGP4","DECAY_DATE":null,"MEAN_MOTION":"15.06393817","TIME_SYSTEM":"UTC","ARG_OF_PERICENTER":"77.0262","RCS_SIZE":"LARGE","RA_OF_ASC_NODE":"203.6894","EPOCH":"2022-09-09T19:50:47.042304","CLASSIFICATION_TYPE":"U","PERIAPSIS":"546.255","REF_FRAME":"TEME","SITE":"AFETR","INCLINATION":"53.0547","LAUNCH_DATE":"2021-03-11","EPHEMERIS_TYPE":"0","OBJECT_ID":"2021-018BG","MEAN_ANOMALY":"283.0884","FILE":"3565505","CENTER_NAME":"EARTH","ECCENTRICITY":"0.00014110","COUNTRY_CODE":"US","MEAN_MOTION_DDOT":"0.0000000000000","GP_ID":"212166285"},{"SITE":"AFETR","REF_FRAME":"TEME","EPHEMERIS_TYPE":"0","LAUNCH_DATE":"2021-03-11","INCLINATION":"53.0543","OBJECT_ID":"2021-018BH","EPOCH":"2022-09-09T08:22:04.976544","CLASSIFICATION_TYPE":"U","PERIAPSIS":"545.955","COUNTRY_CODE":"US","ECCENTRICITY":"0.00018070","MEAN_MOTION_DDOT":"0.0000000000000","GP_ID":"212126759","MEAN_ANOMALY":"297.9844","FILE":"3564914","CENTER_NAME":"EARTH","APOAPSIS":"548.458","BSTAR":"0.00014044000000","ELEMENT_SET_NO":"999","OBJECT_NAME":"STARLINK-2434","OBJECT_TYPE":"PAYLOAD","MEAN_ELEMENT_THEORY":"SGP4","DECAY_DATE":null,"MEAN_MOTION":"15.06402376","TIME_SYSTEM":"UTC","RCS_SIZE":"LARGE","RA_OF_ASC_NODE":"235.8280","ARG_OF_PERICENTER":"62.1328","TLE_LINE2":"2 47842  53.0543 235.8280 0001807  62.1328 297.9844 15.06402376 83988","PERIOD":"95.592","TLE_LINE1":"1 47842U 21018BH  22252.34866871  .00001811  00000-0  14044-3 0  9990","NORAD_CAT_ID":"47842","MEAN_MOTION_DOT":"0.00001811","REV_AT_EPOCH":"8398","SEMIMAJOR_AXIS":"6925.341"},{"TLE_LINE1":"1 47843U 21018BJ  22252.32148204  .00001658  00000-0  13023-3 0  9997","PERIOD":"95.593","TLE_LINE2":"2 47843  53.0543 230.9588 0001631  68.2817 291.8346 15.06392054 84017","REV_AT_EPOCH":"8401","SEMIMAJOR_AXIS":"6925.373","MEAN_MOTION_DOT":"0.00001658","NORAD_CAT_ID":"47843","MEAN_MOTION":"15.06392054","DECAY_DATE":null,"MEAN_ELEMENT_THEORY":"SGP4","ARG_OF_PERICENTER":"68.2817","RCS_SIZE":"LARGE","RA_OF_ASC_NODE":"230.9588","TIME_SYSTEM":"UTC","BSTAR":"0.00013023000000","ELEMENT_SET_NO":"999","OBJECT_TYPE":"PAYLOAD","OBJECT_NAME":"STARLINK-2435","APOAPSIS":"548.367","MEAN_ANOMALY":"291.8346","FILE":"3564914","CENTER_NAME":"EARTH","MEAN_MOTION_DDOT":"0.0000000000000","ECCENTRICITY":"0.00016310","COUNTRY_CODE":"US","GP_ID":"212127009","EPOCH":"2022-09-09T07:42:56.048256","PERIAPSIS":"546.108","CLASSIFICATION_TYPE":"U","INCLINATION":"53.0543","LAUNCH_DATE":"2021-03-11","EPHEMERIS_TYPE":"0","REF_FRAME":"TEME","SITE":"AFETR","OBJECT_ID":"2021-018BJ"},{"TLE_LINE1":"1 47844U 21018BK  22252.32009642 -.00000571  00000-0 -19445-4 0  9990","PERIOD":"95.591","TLE_LINE2":"2 47844  53.0539 225.9635 0001724  72.6237 287.4940 15.06415739 84060","MEAN_MOTION_DOT":"-0.00000571","NORAD_CAT_ID":"47844","REV_AT_EPOCH":"8406","SEMIMAJOR_AXIS":"6925.300","DECAY_DATE":null,"MEAN_ELEMENT_THEORY":"SGP4","MEAN_MOTION":"15.06415739","TIME_SYSTEM":"UTC","ARG_OF_PERICENTER":"72.6237","RCS_SIZE":"LARGE","RA_OF_ASC_NODE":"225.9635","ELEMENT_SET_NO":"999","BSTAR":"-0.00001944500000","OBJECT_NAME":"STARLINK-2446","OBJECT_TYPE":"PAYLOAD","APOAPSIS":"548.359","MEAN_ANOMALY":"287.4940","FILE":"3564914","CENTER_NAME":"EARTH","ECCENTRICITY":"0.00017240","COUNTRY_CODE":"US","MEAN_MOTION_DDOT":"0.0000000000000","GP_ID":"212127761","EPOCH":"2022-09-09T07:40:56.330688","CLASSIFICATION_TYPE":"U","PERIAPSIS":"545.971","REF_FRAME":"TEME","SITE":"AFETR","INCLINATION":"53.0539","LAUNCH_DATE":"2021-03-11","EPHEMERIS_TYPE":"0","OBJECT_ID":"2021-018BK"},{"APOAPSIS":"548.321","ELEMENT_SET_NO":"999","BSTAR":"0.00013755000000","OBJECT_TYPE":"PAYLOAD","OBJECT_NAME":"STARLINK-2453","MEAN_MOTION":"15.06398058","DECAY_DATE":null,"MEAN_ELEMENT_THEORY":"SGP4","ARG_OF_PERICENTER":"79.9341","RA_OF_ASC_NODE":"225.8736","RCS_SIZE":"LARGE","TIME_SYSTEM":"UTC","TLE_LINE1":"1 47845U 21018BL  22252.33853308  .00001768  00000-0  13755-3 0  9992","TLE_LINE2":"2 47845  53.0534 225.8736 0001591  79.9341 280.1827 15.06398058 84074","PERIOD":"95.592","SEMIMAJOR_AXIS":"6925.355","REV_AT_EPOCH":"8407","MEAN_MOTION_DOT":"0.00001768","NORAD_CAT_ID":"47845","INCLINATION":"53.0534","LAUNCH_DATE":"2021-03-11","EPHEMERIS_TYPE":"0","SITE":"AFETR","REF_FRAME":"TEME","OBJECT_ID":"2021-018BL","EPOCH":"2022-09-09T08:07:29.258112","PERIAPSIS":"546.118","CLASSIFICATION_TYPE":"U","MEAN_MOTION_DDOT":"0.0000000000000","ECCENTRICITY":"0.00015910","COUNTRY_CODE":"US","GP_ID":"212128000","MEAN_ANOMALY":"280.1827","FILE":"3564914","CENTER_NAME":"EARTH"},{"OBJECT_ID":"2021-018BM","REF_FRAME":"TEME","SITE":"AFETR","LAUNCH_DATE":"2021-03-11","EPHEMERIS_TYPE":"0","INCLINATION":"53.0536","CLASSIFICATION_TYPE":"U","PERIAPSIS":"545.998","EPOCH":"2022-09-09T17:34:03.482400","GP_ID":"212166537","ECCENTRICITY":"0.00017380","COUNTRY_CODE":"US","MEAN_MOTION_DDOT":"0.0000000000000","CENTER_NAME":"EARTH","FILE":"3565505","MEAN_ANOMALY":"284.6884","APOAPSIS":"548.405","OBJECT_NAME":"STARLINK-2456","OBJECT_TYPE":"PAYLOAD","BSTAR":"0.00025193000000","ELEMENT_SET_NO":"999","TIME_SYSTEM":"UTC","ARG_OF_PERICENTER":"75.4298","RCS_SIZE":"LARGE","RA_OF_ASC_NODE":"224.1050","DECAY_DATE":null,"MEAN_ELEMENT_THEORY":"SGP4","MEAN_MOTION":"15.06404007","MEAN_MOTION_DOT":"0.00003473","NORAD_CAT_ID":"47846","REV_AT_EPOCH":"8418","SEMIMAJOR_AXIS":"6925.336","TLE_LINE1":"1 47846U 21018BM  22252.73198475  .00003473  00000-0  25193-3 0  9998","PERIOD":"95.592","TLE_LINE2":"2 47846  53.0536 224.1050 0001738  75.4298 284.6884 15.06404007 84189"},{"OBJECT_ID":"2021-021A","SITE":"AFETR","REF_FRAME":"TEME","LAUNCH_DATE":"2021-03-14","INCLINATION":"53.0533","EPHEMERIS_TYPE":"0","CLASSIFICATION_TYPE":"U","PERIAPSIS":"546.311","EPOCH":"2022-09-09T06:33:17.919648","GP_ID":"212128262","COUNTRY_CODE":"US","ECCENTRICITY":"0.00013440","MEAN_MOTION_DDOT":"0.0000000000000","FILE":"3564914","CENTER_NAME":"EARTH","MEAN_ANOMALY":"274.4094","APOAPSIS":"548.173","OBJECT_NAME":"STARLINK-2258","OBJECT_TYPE":"PAYLOAD","BSTAR":"0.00024522000000","ELEMENT_SET_NO":"999","TIME_SYSTEM":"UTC","RCS_SIZE":"LARGE","RA_OF_ASC_NODE":"256.1574","ARG_OF_PERICENTER":"85.7049","DECAY_DATE":null,"MEAN_ELEMENT_THEORY":"SGP4","MEAN_MOTION":"15.06390682","NORAD_CAT_ID":"47860","MEAN_MOTION_DOT":"0.00003372","REV_AT_EPOCH":"8341","SEMIMAJOR_AXIS":"6925.377","PERIOD":"95.593","TLE_LINE2":"2 47860  53.0533 256.1574 0001344  85.7049 274.4094 15.06390682 83417","TLE_LINE1":"1 47860U 21021A   22252.27312407  .00003372  00000-0  24522-3 0  9993"},{"OBJECT_ID":"2021-021B","REF_FRAME":"TEME","SITE":"AFETR","LAUNCH_DATE":"2021-03-14","EPHEMERIS_TYPE":"0","INCLINATION":"53.0532","CLASSIFICATION_TYPE":"U","PERIAPSIS":"546.165","EPOCH":"2022-09-09T08:34:41.431872","GP_ID":"212128501","COUNTRY_CODE":"US","ECCENTRICITY":"0.00015120","MEAN_MOTION_DDOT":"0.0000000000000","FILE":"3564914","CENTER_NAME":"EARTH","MEAN_ANOMALY":"291.9622","APOAPSIS":"548.259","OBJECT_NAME":"STARLINK-2280","OBJECT_TYPE":"PAYLOAD","BSTAR":"0.00009809400000","ELEMENT_SET_NO":"999","TIME_SYSTEM":"UTC","RCS_SIZE":"LARGE","RA_OF_ASC_NODE":"240.7775","ARG_OF_PERICENTER":"68.1527","MEAN_ELEMENT_THEORY":"SGP4","DECAY_DATE":null,"MEAN_MOTION":"15.06400522","NORAD_CAT_ID":"47861","MEAN_MOTION_DOT":"0.00001180","SEMIMAJOR_AXIS":"6925.347","REV_AT_EPOCH":"8374","TLE_LINE2":"2 47861  53.0532 240.7775 0001512  68.1527 291.9622 15.06400522 83744","PERIOD":"95.592","TLE_LINE1":"1 47861U 21021B   22252.35742398  .00001180  00000-0  98094-4 0  9990"}];
